[Satellite]
VERSION=1.1
NAME=CZ-6A DEB
NICKNAME=CZ-6A DEB
TLE1=1 54563U 22151LP  22342.46439362  .00000941  00000+0  55196-3 0  9996
TLE2=2 54563  98.8248 347.0810 0038626   9.1849 351.0020 14.10214755  3478
STATUS=0
